ORBCOMM FM24 [-]        
1 25478U 98053D   23278.53052556  .00002724  00000+0  10022-2 0  9995
2 25478  45.0092 323.4077 0002205 282.6963  77.3638 14.34714577308490
ORBCOMM FM25 [-]        
1 25479U 98053E   23278.56387872  .00002444  00000+0  90484-3 0  9991
2 25479  45.0084 321.4828 0002981 341.7745  18.2994 14.34696956308512
ORBCOMM FM26 [-]        
1 25480U 98053F   23278.49646332  .00002070  00000+0  78015-3 0  9995
2 25480  45.0081 315.1158 0004077  25.3695 334.7352 14.34280346308453
ORBCOMM FM27 [+]        
1 25481U 98053G   23278.82700906  .00002364  00000+0  87725-3 0  9995
2 25481  45.0066 320.4974 0002435 246.1038 113.9554 14.34671428308481
ORBCOMM FM28 [-]        
1 25482U 98053H   23278.95425644  .00002410  00000+0  88463-3 0  9995
2 25482  45.0054 259.1430 0002524  36.7857 323.3163 14.35168897309166
ORBCOMM FM31 [-]        
1 25981U 99065B   23278.72547451  .00001675  00000+0  63917-3 0  9998
2 25981  45.0225 133.2206 0002905 161.0734 199.0221 14.34436651244832
