<?xml version="1.0" encoding="UTF-8"?>
<ndm xmlns:xsi="http://www.w3.org/2001/XMLSchema-instance" xsi:noNamespaceSchemaLocation="https://sanaregistry.org/r/ndmxml_unqualified/ndmxml-2.0.0-master-2.0.xsd">
<omm id="CCSDS_OMM_VERS" version="2.0">
<header><CREATION_DATE/><ORIGINATOR/></header><body><segment><metadata><OBJECT_NAME>ORBCOMM FM24 [-]</OBJECT_NAME><OBJECT_ID>1998-053D</OBJECT_ID><CENTER_NAME>EARTH</CENTER_NAME><REF_FRAME>TEME</REF_FRAME><TIME_SYSTEM>UTC</TIME_SYSTEM><MEAN_ELEMENT_THEORY>SGP4</MEAN_ELEMENT_THEORY></metadata><data><meanElements><EPOCH>2023-10-05T12:43:57.408384</EPOCH><MEAN_MOTION>14.34714577</MEAN_MOTION><ECCENTRICITY>.0002205</ECCENTRICITY><INCLINATION>45.0092</INCLINATION><RA_OF_ASC_NODE>323.4077</RA_OF_ASC_NODE><ARG_OF_PERICENTER>282.6963</ARG_OF_PERICENTER><MEAN_ANOMALY>77.3638</MEAN_ANOMALY></meanElements><tleParameters><EPHEMERIS_TYPE>0</EPHEMERIS_TYPE><CLASSIFICATION_TYPE>U</CLASSIFICATION_TYPE><NORAD_CAT_ID>25478</NORAD_CAT_ID><ELEMENT_SET_NO>999</ELEMENT_SET_NO><REV_AT_EPOCH>30849</REV_AT_EPOCH><BSTAR>.10022E-2</BSTAR><MEAN_MOTION_DOT>.2724E-4</MEAN_MOTION_DOT><MEAN_MOTION_DDOT>0</MEAN_MOTION_DDOT></tleParameters></data></segment></body></omm>
<omm id="CCSDS_OMM_VERS" version="2.0">
<header><CREATION_DATE/><ORIGINATOR/></header><body><segment><metadata><OBJECT_NAME>ORBCOMM FM25 [-]</OBJECT_NAME><OBJECT_ID>1998-053E</OBJECT_ID><CENTER_NAME>EARTH</CENTER_NAME><REF_FRAME>TEME</REF_FRAME><TIME_SYSTEM>UTC</TIME_SYSTEM><MEAN_ELEMENT_THEORY>SGP4</MEAN_ELEMENT_THEORY></metadata><data><meanElements><EPOCH>2023-10-05T13:31:59.121408</EPOCH><MEAN_MOTION>14.34696956</MEAN_MOTION><ECCENTRICITY>.0002981</ECCENTRICITY><INCLINATION>45.0084</INCLINATION><RA_OF_ASC_NODE>321.4828</RA_OF_ASC_NODE><ARG_OF_PERICENTER>341.7745</ARG_OF_PERICENTER><MEAN_ANOMALY>18.2994</MEAN_ANOMALY></meanElements><tleParameters><EPHEMERIS_TYPE>0</EPHEMERIS_TYPE><CLASSIFICATION_TYPE>U</CLASSIFICATION_TYPE><NORAD_CAT_ID>25479</NORAD_CAT_ID><ELEMENT_SET_NO>999</ELEMENT_SET_NO><REV_AT_EPOCH>30851</REV_AT_EPOCH><BSTAR>.90484E-3</BSTAR><MEAN_MOTION_DOT>.2444E-4</MEAN_MOTION_DOT><MEAN_MOTION_DDOT>0</MEAN_MOTION_DDOT></tleParameters></data></segment></body></omm>
<omm id="CCSDS_OMM_VERS" version="2.0">
<header><CREATION_DATE/><ORIGINATOR/></header><body><segment><metadata><OBJECT_NAME>ORBCOMM FM26 [-]</OBJECT_NAME><OBJECT_ID>1998-053F</OBJECT_ID><CENTER_NAME>EARTH</CENTER_NAME><REF_FRAME>TEME</REF_FRAME><TIME_SYSTEM>UTC</TIME_SYSTEM><MEAN_ELEMENT_THEORY>SGP4</MEAN_ELEMENT_THEORY></metadata><data><meanElements><EPOCH>2023-10-05T11:54:54.430848</EPOCH><MEAN_MOTION>14.34280346</MEAN_MOTION><ECCENTRICITY>.0004077</ECCENTRICITY><INCLINATION>45.0081</INCLINATION><RA_OF_ASC_NODE>315.1158</RA_OF_ASC_NODE><ARG_OF_PERICENTER>25.3695</ARG_OF_PERICENTER><MEAN_ANOMALY>334.7352</MEAN_ANOMALY></meanElements><tleParameters><EPHEMERIS_TYPE>0</EPHEMERIS_TYPE><CLASSIFICATION_TYPE>U</CLASSIFICATION_TYPE><NORAD_CAT_ID>25480</NORAD_CAT_ID><ELEMENT_SET_NO>999</ELEMENT_SET_NO><REV_AT_EPOCH>30845</REV_AT_EPOCH><BSTAR>.78015E-3</BSTAR><MEAN_MOTION_DOT>.207E-4</MEAN_MOTION_DOT><MEAN_MOTION_DDOT>0</MEAN_MOTION_DDOT></tleParameters></data></segment></body></omm>
<omm id="CCSDS_OMM_VERS" version="2.0">
<header><CREATION_DATE/><ORIGINATOR/></header><body><segment><metadata><OBJECT_NAME>ORBCOMM FM27 [+]</OBJECT_NAME><OBJECT_ID>1998-053G</OBJECT_ID><CENTER_NAME>EARTH</CENTER_NAME><REF_FRAME>TEME</REF_FRAME><TIME_SYSTEM>UTC</TIME_SYSTEM><MEAN_ELEMENT_THEORY>SGP4</MEAN_ELEMENT_THEORY></metadata><data><meanElements><EPOCH>2023-10-05T19:50:53.582784</EPOCH><MEAN_MOTION>14.34671428</MEAN_MOTION><ECCENTRICITY>.0002435</ECCENTRICITY><INCLINATION>45.0066</INCLINATION><RA_OF_ASC_NODE>320.4974</RA_OF_ASC_NODE><ARG_OF_PERICENTER>246.1038</ARG_OF_PERICENTER><MEAN_ANOMALY>113.9554</MEAN_ANOMALY></meanElements><tleParameters><EPHEMERIS_TYPE>0</EPHEMERIS_TYPE><CLASSIFICATION_TYPE>U</CLASSIFICATION_TYPE><NORAD_CAT_ID>25481</NORAD_CAT_ID><ELEMENT_SET_NO>999</ELEMENT_SET_NO><REV_AT_EPOCH>30848</REV_AT_EPOCH><BSTAR>.87725E-3</BSTAR><MEAN_MOTION_DOT>.2364E-4</MEAN_MOTION_DOT><MEAN_MOTION_DDOT>0</MEAN_MOTION_DDOT></tleParameters></data></segment></body></omm>
<omm id="CCSDS_OMM_VERS" version="2.0">
<header><CREATION_DATE/><ORIGINATOR/></header><body><segment><metadata><OBJECT_NAME>ORBCOMM FM28 [-]</OBJECT_NAME><OBJECT_ID>1998-053H</OBJECT_ID><CENTER_NAME>EARTH</CENTER_NAME><REF_FRAME>TEME</REF_FRAME><TIME_SYSTEM>UTC</TIME_SYSTEM><MEAN_ELEMENT_THEORY>SGP4</MEAN_ELEMENT_THEORY></metadata><data><meanElements><EPOCH>2023-10-05T22:54:07.756416</EPOCH><MEAN_MOTION>14.35168897</MEAN_MOTION><ECCENTRICITY>.0002524</ECCENTRICITY><INCLINATION>45.0054</INCLINATION><RA_OF_ASC_NODE>259.1430</RA_OF_ASC_NODE><ARG_OF_PERICENTER>36.7857</ARG_OF_PERICENTER><MEAN_ANOMALY>323.3163</MEAN_ANOMALY></meanElements><tleParameters><EPHEMERIS_TYPE>0</EPHEMERIS_TYPE><CLASSIFICATION_TYPE>U</CLASSIFICATION_TYPE><NORAD_CAT_ID>25482</NORAD_CAT_ID><ELEMENT_SET_NO>999</ELEMENT_SET_NO><REV_AT_EPOCH>30916</REV_AT_EPOCH><BSTAR>.88463E-3</BSTAR><MEAN_MOTION_DOT>.241E-4</MEAN_MOTION_DOT><MEAN_MOTION_DDOT>0</MEAN_MOTION_DDOT></tleParameters></data></segment></body></omm>
<omm id="CCSDS_OMM_VERS" version="2.0">
<header><CREATION_DATE/><ORIGINATOR/></header><body><segment><metadata><OBJECT_NAME>ORBCOMM FM31 [-]</OBJECT_NAME><OBJECT_ID>1999-065B</OBJECT_ID><CENTER_NAME>EARTH</CENTER_NAME><REF_FRAME>TEME</REF_FRAME><TIME_SYSTEM>UTC</TIME_SYSTEM><MEAN_ELEMENT_THEORY>SGP4</MEAN_ELEMENT_THEORY></metadata><data><meanElements><EPOCH>2023-10-05T17:24:40.997664</EPOCH><MEAN_MOTION>14.34436651</MEAN_MOTION><ECCENTRICITY>.0002905</ECCENTRICITY><INCLINATION>45.0225</INCLINATION><RA_OF_ASC_NODE>133.2206</RA_OF_ASC_NODE><ARG_OF_PERICENTER>161.0734</ARG_OF_PERICENTER><MEAN_ANOMALY>199.0221</MEAN_ANOMALY></meanElements><tleParameters><EPHEMERIS_TYPE>0</EPHEMERIS_TYPE><CLASSIFICATION_TYPE>U</CLASSIFICATION_TYPE><NORAD_CAT_ID>25981</NORAD_CAT_ID><ELEMENT_SET_NO>999</ELEMENT_SET_NO><REV_AT_EPOCH>24483</REV_AT_EPOCH><BSTAR>.63917E-3</BSTAR><MEAN_MOTION_DOT>.1675E-4</MEAN_MOTION_DOT><MEAN_MOTION_DDOT>0</MEAN_MOTION_DDOT></tleParameters></data></segment></body></omm>

</ndm>
